EUTELSAT 80A            
1 26369U 00028A   21020.84861188  .00000127  00000-0  00000-0 0  9995
2 26369   3.8902  79.6509 0004745 218.8068 175.6768  1.00271694 75652
TDRS 8                  
1 26388U 00034A   21020.56971821 -.00000230  00000-0  00000-0 0  9994
2 26388   9.5663  46.0603 0019420 315.1207  53.2283  1.00278288 75395
NAVSTAR 48 (USA 151)    
1 26407U 00040A   21020.91230620 -.00000053  00000-0  00000-0 0  9990
2 26407  55.8311 293.5813 0182931 282.1355  86.4638  2.00564467150370
CLUSTER II-FM7 (SAMBA)  
1 26410U 00041A   21022.72598301  .00000192  00000-0  00000-0 0  9992
2 26410 132.4118 343.3445 4680001 188.7582 359.2533  0.44222650 11556
CLUSTER II-FM6 (SALSA)  
1 26411U 00041B   21022.79469884  .00000224  00000-0  00000-0 0  9999
2 26411 132.8220 344.9153 6096215 193.9446 359.2481  0.44221674 11596
INTELSAT 9 (IS-9)       
1 26451U 00043A   21020.90086628 -.00000282  00000-0  00000-0 0  9992
2 26451   6.1423  64.5336 0002632 226.3211 103.9315  1.00273613 24352
CLUSTER II-FM5 (RUMBA)  
1 26463U 00045A   21022.79201986  .00000273  00000-0  00000-0 0  9991
2 26463 136.4603 344.7700 5674160 193.9894 359.2595  0.44221537 11483
CLUSTER II-FM8 (TANGO)  
1 26464U 00045B   21022.72545833  .00000192  00000-0  00000-0 0  9997
2 26464 132.4164 343.3352 4679687 188.7539 359.2425  0.44219846 11567
BRASILSAT B4            
1 26469U 00046A   21014.07342403 -.00000180  00000-0  00000-0 0  9998
2 26469   4.4584  76.9669 0002963 222.8699 108.2391  1.00267987 75102
ASTRA 2B                
1 26494U 00054A   21020.84294153  .00000122  00000-0  00000-0 0  9990
2 26494   4.9952  72.5096 0005055 224.5240 146.3951  1.00271969 27103
NSS-11 (AAP-1)          
1 26554U 00059A   21020.87408483  .00000033  00000-0  00000-0 0  9999
2 26554   0.0100  21.4906 0002718 273.4839 316.1227  1.00271799 21518
USA 153                 
1 26575U 00065A   21020.86579740 -.00000321  00000-0  00000-0 0  9994
2 26575   8.2485  48.6958 0001955 276.0050 241.7391  1.00266589 13147
AMC-6 (GE-6)            
1 26580U 00067A   21020.73947957  .00000113  00000-0  00000-0 0  9995
2 26580   0.0521 286.0878 0002874  14.1989 307.2229  1.00271230 74139
INTELSAT 12 (IS-12)     
1 26590U 00068A   21020.91125956  .00000019  00000-0  00000-0 0  9999
2 26590   3.4427  84.3488 0002598 213.8683 214.5406  1.00269251 31938
INTELSAT 1R (IS-1R)     
1 26608U 00072A   21020.87033368 -.00000132  00000-0  00000-0 0  9991
2 26608   3.1999  84.3957 0000364 159.4869 346.9760  1.00271753 21538
ANIK F1                 
1 26624U 00076A   21020.88935112 -.00000065  00000-0  00000-0 0  9997
2 26624   0.1663 101.5786 0003603 305.1969 286.5341  1.00271898 23359
ASTRA 2D                
1 26638U 00081A   21020.70685328  .00000067  00000-0  00000-0 0  9991
2 26638   6.2295  63.5111 0002294 247.7826 120.7017  1.00269273 33128
AMC-8 (GE-8)            
1 26639U 00081B   21020.67553941  .00000095  00000-0  00000-0 0  9994
2 26639   1.1815  93.8629 0002888 210.9993 283.5748  1.00270664 73542
NAVSTAR 50 (USA 156)    
1 26690U 01004A   21020.19903074 -.00000050  00000-0  00000-0 0  9992
2 26690  53.5723 105.8966 0002276 274.4355  72.8860  1.91595729145719
ODIN                    
1 26702U 01007A   21020.47865477  .00000455  00000-0  33382-4 0  9995
2 26702  97.5450  39.6998 0009571 240.5393 119.4881 15.08277557 88927
USA 157 (MILSTAR-2 2)   
1 26715U 01009A   21020.73241345  .00000085  00000-0  00000-0 0  9998
2 26715   9.5302  29.5400 0004016 273.9260 265.9287  1.00406927 13161
EUTELSAT 133 WEST A     
1 26719U 01011A   21020.67752525  .00000084  00000-0  00000-0 0  9994
2 26719   2.4758  87.2878 0005258 211.5730 292.4192  1.00270106 72759
BSAT-2A                 
1 26720U 01011B   21020.48313188 -.00000274  00000-0  00000-0 0  9995
2 26720   6.5515  62.0935 0003363 228.0601 132.4757  0.99179197 72404
INTELSAT 10 (IS-10)     
1 26766U 01019A   21020.84843741  .00000129  00000-0  00000-0 0  9994
2 26766   4.3857  77.4652 0003077 208.1963 187.6794  1.00270643 25836
INTELSAT 901 (IS-901)   
1 26824U 01024A   21020.68992949 -.00000194  00000-0  00000-0 0  9995
2 26824   0.0462 253.4460 0000624  10.0432  77.6661  1.00271289  3187
ASTRA 2C                
1 26853U 01025A   21020.91698709  .00000142  00000-0  00000-0 0  9993
2 26853   3.3386  83.7969 0002959 212.2130 178.2674  1.00271323 25266
ICO F2                  
1 26857U 01026A   21018.28357457 -.00000054  00000-0  00000-0 0  9990
2 26857  44.9836 340.0580 0017716 290.4723  69.3631  3.92403368128189
USA 159 (DSP 21)        
1 26880U 01033A   21020.90095352 -.00000292  00000-0  00000-0 0  9993
2 26880  10.9653  28.9602 0000087 300.6345  66.1793  1.00271881 13186
INTELSAT 902 (IS-902)   
1 26900U 01039A   21020.90077904 -.00000274  00000-0  00000-0 0  9995
2 26900   1.1407  94.5325 0003062 215.7087  84.4230  1.00271658 70920
PCSAT (NO-44)           
1 26931U 01043C   21020.52583757 -.00000048  00000-0  13217-4 0  9997
2 26931  67.0523 302.2039 0007406 271.6882  88.3371 14.30603169  8085
PROBA-1                 
1 26958U 01049B   21020.89703741  .00000550  00000-0  52585-4 0  9997
2 26958  97.7502 338.7817 0071090 253.9618 105.3786 14.95622454 47856
BIRD 2                  
1 26959U 01049C   21020.85819138  .00001551  00000-0  43311-4 0  9991
2 26959  97.8178  74.8664 0009082  50.2829 309.9214 15.38434896374286
TIMED                   
1 26998U 01055B   21020.79568397  .00000088  00000-0  13614-4 0  9999
2 26998  74.0706 220.5116 0002185 254.4304 105.6636 14.88260385 36770
MAROC-TUBSAT            
1 27004U 01056D   21020.86281451 -.00000033  00000-0  13549-4 0  9998
2 27004  99.5454 158.3307 0019990 172.1347 341.8300 13.70144297955940
COSMOS 2385             
1 27056U 01058B   21020.72178702  .00000018  00000-0  45840-4 0  9997
2 27056  82.5371  41.8760 0006206  14.9923 345.1346 12.60512573877309
COSMOS 2386             
1 27057U 01058C   21020.74545634  .00000014  00000-0  21663-4 0  9995
2 27057  82.5430  37.4862 0000520 135.9425 224.1707 12.61558776878016
USA 164 (MILSTAR-2 3)   
1 27168U 02001A   21020.79684701  .00000106  00000-0  00000-0 0  9991
2 27168   8.9839  31.0575 0002540 275.0109 120.0987  1.00274555 13177
RHESSI                  
1 27370U 02004A   21020.79243664  .00002821  00000-0  87992-4 0  9993
2 27370  38.0327 288.0047 0013222 306.1085  53.8462 15.33959939 47708
ECHOSTAR 7              
1 27378U 02006A   21020.88699576  .00000008  00000-0  00000-0 0  9996
2 27378   0.0529 270.9544 0002152  65.5512 344.4671  1.00276163 30817
INTELSAT 904 (IS-904)   
1 27380U 02007A   21020.76137582 -.00000207  00000-0  00000-0 0  9993
2 27380   1.9781  91.2366 0003498 218.4518  55.2260  1.00272205 31977
TDRS 9                  
1 27389U 02011A   21020.53936007 -.00000283  00000-0  00000-0 0  9995
2 27389   7.9414  65.4605 0027452 278.4128 268.0445  1.00277834 70653
JCSAT-2A                
1 27399U 02015A   21019.93412435 -.00000319  00000-0  00000+0 0  9995
2 27399   3.4114  83.5736 0005191 308.8578 204.9963  0.99770861 68826
ASTRA 3A                
1 27400U 02015B   21020.37636789 -.00000200  00000-0  00000-0 0  9998
2 27400   6.3498  62.3103 0001712 233.3120 233.0366  1.00274241 68935
NSS-7                   
1 27414U 02019A   21020.83500306 -.00000152  00000-0  00000-0 0  9999
2 27414   4.7232  75.2406 0002763 222.8704 102.8884  1.00271383 68779
AQUA                    
1 27424U 02022A   21020.88978153  .00000089  00000-0  29881-4 0  9998
2 27424  98.2152 324.3395 0002330  56.7018  35.5449 14.57117341995537
DIRECTV 5 (TEMPO 1)     
1 27426U 02023A   21020.66915198 -.00000047  00000-0  00000-0 0  9990
2 27426   0.0142  24.1637 0002978 275.7739 311.0746  1.00267966 68451
INTELSAT 905 (IS-905)   
1 27438U 02027A   21020.83413069 -.00000177  00000-0  00000-0 0  9990
2 27438   1.7993  92.0753 0002758 213.8453  90.2682  1.00271137 31574
GALAXY 3C (G-3C)        
1 27445U 02030A   21020.40813116 -.00000146  00000-0  00000-0 0  9998
2 27445   0.0218 316.0780 0003042   0.9832 214.7990  1.00292675 26711
EUTELSAT 5 WEST A       
1 27460U 02035A   21020.83805632 -.00000034  00000-0  00000-0 0  9997
2 27460   1.0765  94.8667 0006167 206.8743 115.3723  1.00273421 67825
COSMOS 2390             
1 27464U 02036A   21020.71028542  .00000015  00000-0  34695-4 0  9995
2 27464  82.4871 138.8716 0024332 254.1408 105.6997 12.44575129842323
COSMOS 2391             
1 27465U 02036B   21020.75398686  .00000018  00000-0  57749-4 0  9997
2 27465  82.4860 136.1874 0025180 250.5446 109.2924 12.44895719842535
METEOSAT-8 (MSG-1)      
1 27509U 02040B   21020.77550806  .00000141  00000-0  00000-0 0  9998
2 27509   7.1087  53.1701 0000397 309.9857  77.9334  1.00265376 67472
INTELSAT 906 (IS-906)   
1 27513U 02041A   21020.92896431  .00000023  00000-0  00000-0 0  9997
2 27513   0.8056  96.6439 0003109 210.8885 211.5291  1.00272272 67244
HISPASAT 30W-4          
1 27528U 02044A   21020.73869444  .00000124  00000-0  00000-0 0  9991
2 27528   1.5934  91.9888 0004174 218.0475 293.2200  1.00276460 23182
INTEGRAL                
1 27540U 02048A   21016.28746555  .00000490  00000-0  00000+0 0  9996
2 27540  59.8365  96.5552 8999576 297.0091   1.7175  0.37569377 19197
TDRS 10                 
1 27566U 02055A   21020.74669671  .00000094  00000-0  00000-0 0  9992
2 27566   7.2846  52.6102 0009607 278.1107 247.3452  1.00266220 66445
NSS-6                   
1 27603U 02057A   21020.87696361  .00000117  00000-0  00000-0 0  9992
2 27603   0.3415  97.6108 0004317 197.7844 331.2758  1.00275229 66255
LATINSAT B              
1 27606U 02058B   21020.73808404 -.00000035  00000-0  16051-4 0  9991
2 27606  64.5564 150.1405 0040072 101.6384 258.9219 14.72325816971221
SAUDISAT 1C (SO-50)     
1 27607U 02058C   21020.84039710 -.00000006  00000-0  19415-4 0  9995
2 27607  64.5558  69.7135 0029360  86.7170 273.7290 14.75703939972799
